     2.100          NAVIGATION                              RINEX VERSION / TYPE
fic2rin                                 08/20/2017 00:15:43 PGM / RUN BY / DATE
                                                            END OF HEADER
13 17  8 19 14  0  0.0 -.899052247405D-04 -.682121026330D-12  .000000000000D+00
     .490000000000D+02 -.371875000000D+01  .477555606394D-08  .678885084689D+00
    -.262632966042D-06  .350056344178D-02  .474043190479D-05  .515368413544D+04
     .568800000000D+06 -.931322574615D-08 -.169173838596D+01 -.391155481339D-07
     .968854863848D+00  .291687500000D+03  .178303392455D+01 -.826927301984D-08
    -.842892252703D-10  .100000000000D+01  .196200000000D+04  .000000000000D+00
     .240000000000D+01  .000000000000D+00 -.111758708954D-07  .490000000000D+02
     .561606000000D+06  .400000000000D+01
14 17  8 19 14  0  0.0 -.812662765384D-04 -.113686837722D-11  .000000000000D+00
     .500000000000D+02 -.837500000000D+01  .481412909923D-08  .200711644084D+01
    -.502914190292D-06  .936802104115D-02  .500679016113D-05  .515367330742D+04
     .568800000000D+06 -.223517417908D-07 -.173178033803D+01 -.206753611565D-06
     .961396854815D+00  .281468750000D+03 -.195038381064D+01 -.815426822943D-08
    -.785747015231D-10  .100000000000D+01  .196200000000D+04  .000000000000D+00
     .240000000000D+01  .000000000000D+00 -.977888703346D-08  .500000000000D+02
     .561606000000D+06  .400000000000D+01
16 17  8 19 14  0  0.0  .367742031813D-04  .113686837722D-12  .000000000000D+00
     .260000000000D+02  .143875000000D+03  .381980196723D-08 -.306455111874D+01
     .735558569431D-05  .926301593427D-02  .786222517490D-05  .515375209808D+04
     .568800000000D+06 -.335276126862D-07  .364068755234D+00 -.987201929092D-07
     .989499170258D+00  .246593750000D+03  .461518183079D+00 -.766353350265D-08
     .399302346831D-09  .100000000000D+01  .196200000000D+04  .000000000000D+00
     .240000000000D+01  .000000000000D+00 -.107102096081D-07  .260000000000D+02
     .561606000000D+06  .400000000000D+01
17 17  8 19 14  0  0.0 -.162477605045D-03  .238742359215D-11  .000000000000D+00
     .180000000000D+02 -.918750000000D+01  .447875798682D-08  .232192679282D+01
    -.717118382454D-06  .117521568900D-01  .216066837311D-06  .515367219734D+04
     .568800000000D+06  .465661287308D-07  .138096536165D+01 -.134110450745D-06
     .980371500637D+00  .383500000000D+03 -.184535824020D+01 -.825855828782D-08
    -.978612191697D-10  .100000000000D+01  .196200000000D+04  .000000000000D+00
     .240000000000D+01  .000000000000D+00 -.111758708954D-07  .180000000000D+02
     .561606000000D+06  .400000000000D+01
18 17  8 19 14  0  0.0  .627433415502D-03  .102318153949D-11  .000000000000D+00
     .470000000000D+02  .179062500000D+02  .496842124040D-08 -.249886683691D+01
     .907108187675D-06  .181173273595D-01  .109858810902D-04  .515362614632D+04
     .568800000000D+06  .163912773132D-06 -.290368270145D+01 -.689178705215D-07
     .926296748275D+00  .148031250000D+03 -.178582945860D+01 -.784175521201D-08
     .542879755978D-09  .100000000000D+01  .196200000000D+04  .000000000000D+00
     .240000000000D+01  .000000000000D+00 -.111758708954D-07  .470000000000D+02
     .561606000000D+06  .400000000000D+01
19 17  8 19 14  0  0.0 -.490348320454D-03  .170530256582D-11  .000000000000D+00
     .590000000000D+02 -.155312500000D+02  .465769401165D-08 -.958692195778D+00
    -.551342964172D-06  .101622386137D-01  .728294253349D-06  .515367370415D+04
     .568800000000D+06  .279396772385D-07  .142863303315D+01  .270083546638D-06
     .977680154154D+00  .374593750000D+03  .105138732566D+01 -.853999858236D-08
    -.767889128522D-10  .100000000000D+01  .196200000000D+04  .000000000000D+00
     .240000000000D+01  .000000000000D+00 -.153668224812D-07  .590000000000D+02
     .561606000000D+06  .400000000000D+01
20 17  8 19 14  0  0.0  .483775045723D-03  .125055521494D-11  .000000000000D+00
     .490000000000D+02 -.725000000000D+01  .506949687918D-08  .137171739920D+01
    -.586733222008D-06  .445989600848D-02  .110995024443D-04  .515373104858D+04
     .568800000000D+06  .186264514923D-07 -.295487758107D+01 -.145286321640D-06
     .927693895020D+00  .151750000000D+03  .164291512475D+01 -.824998650220D-08
     .388587614805D-09  .100000000000D+01  .196200000000D+04  .000000000000D+00
     .240000000000D+01  .000000000000D+00 -.838190317154D-08  .490000000000D+02
     .561606000000D+06  .400000000000D+01
21 17  8 19 14  0  0.0 -.486009754241D-03  .284217094304D-11  .000000000000D+00
     .100000000000D+02 -.118125000000D+03  .487163149443D-08 -.159932415976D+01
    -.594928860664D-05  .239541716874D-01  .859051942825D-05  .515362682533D+04
     .568800000000D+06  .191852450371D-06  .233980866809D+01  .627711415291D-06
     .940729188530D+00  .197593750000D+03 -.164855703363D+01 -.819105547605D-08
    -.387158983869D-09  .100000000000D+01  .196200000000D+04  .000000000000D+00
     .240000000000D+01  .000000000000D+00 -.977888703346D-08  .100000000000D+02
     .561606000000D+06  .400000000000D+01
22 17  8 19 14  0  0.0 -.932919792831D-04 -.126192389871D-10  .000000000000D+00
     .100000000000D+02  .212500000000D+01  .526629079072D-08  .169794849807D+01
    -.167638063431D-06  .734822265804D-02  .112280249596D-04  .515375117683D+04
     .568800000000D+06  .260770320892D-07 -.290398061886D+01 -.126659870148D-06
     .924368165816D+00  .142437500000D+03 -.168635319872D+01 -.826462996930D-08
     .490734726785D-09  .100000000000D+01  .196200000000D+04  .000000000000D+00
     .240000000000D+01  .000000000000D+00 -.176951289177D-07  .100000000000D+02
     .561606000000D+06  .400000000000D+01
23 17  8 19 14  0  0.0 -.216468703002D-03 -.454747350886D-12  .000000000000D+00
     .380000000000D+02  .493750000000D+01  .533700802209D-08  .945143894934D+00
     .417232513428D-06  .118949898751D-01  .502541661263D-05  .515368438339D+04
     .568800000000D+06 -.214204192162D-06 -.181825768571D+01  .949949026108D-07
     .943784536826D+00  .276125000000D+03 -.242794567732D+01 -.852714090393D-08
    -.142863093678D-09  .100000000000D+01  .196200000000D+04  .000000000000D+00
     .240000000000D+01  .000000000000D+00 -.204890966415D-07  .380000000000D+02
     .561606000000D+06  .400000000000D+01
24 17  8 19 14  0  0.0 -.389753840864D-04 -.341060513165D-12  .000000000000D+00
     .680000000000D+02 -.180625000000D+02  .485198781905D-08  .404459333846D+00
    -.916421413422D-06  .580197630916D-02  .103767961264D-04  .515368020630D+04
     .568800000000D+06  .316649675369D-07 -.795324953482D+00  .145286321640D-06
     .944361122580D+00  .173781250000D+03  .473113226425D+00 -.817748348215D-08
    -.502878089748D-09  .100000000000D+01  .196200000000D+04  .000000000000D+00
     .340000000000D+01  .000000000000D+00  .279396772385D-08  .680000000000D+02
     .561606000000D+06  .400000000000D+01
25 17  8 19 14  0  0.0 -.441675540060D-03 -.636646291241D-11  .000000000000D+00
     .820000000000D+02  .121000000000D+03  .407195532757D-08 -.153864172096D+01
     .633858144283D-05  .654362095520D-02  .845268368721D-05  .515377509308D+04
     .568800000000D+06  .109896063805D-06  .288933105669D+00 -.186264514923D-08
     .976911304391D+00  .224968750000D+03  .831286361819D+00 -.784782689349D-08
     .349657421778D-09  .100000000000D+01  .196200000000D+04  .000000000000D+00
     .240000000000D+01  .000000000000D+00  .558793544769D-08  .820000000000D+02
     .561606000000D+06  .400000000000D+01
26 17  8 19 14  0  0.0 -.448367558420D-03  .920863385545D-11  .000000000000D+00
     .101000000000D+03  .132625000000D+03  .451090218290D-08 -.214961895447D+01
     .673905014992D-05  .182723242324D-02  .841915607452D-05  .515375557327D+04
     .568800000000D+06 -.372529029846D-08  .272041386016D+00  .745058059692D-08
     .958626346909D+00  .219937500000D+03  .320841765719D-01 -.805819279893D-08
     .318941856637D-09  .100000000000D+01  .196200000000D+04  .000000000000D+00
     .340000000000D+01  .000000000000D+00  .745058059692D-08  .101000000000D+03
     .561606000000D+06  .400000000000D+01
27 17  8 19 14  0  0.0  .312682241201D-03  .568434188608D-11  .000000000000D+00
     .104000000000D+03 -.909375000000D+01  .471591072233D-08  .233376767955D+01
    -.447034835815D-06  .490930525120D-02  .752508640289D-06  .515366655922D+04
     .568800000000D+06 -.210478901863D-06  .132848313167D+01 -.260770320892D-07
     .975250776801D+00  .372843750000D+03  .397938367730D+00 -.844642325600D-08
     .264296723305D-10  .100000000000D+01  .196200000000D+04  .000000000000D+00
     .240000000000D+01  .000000000000D+00  .139698386192D-08  .104000000000D+03
     .561606000000D+06  .400000000000D+01
28 17  8 19 14  0  0.0  .638648867607D-03  .306954461848D-11  .000000000000D+00
     .830000000000D+02  .149250000000D+03  .377980030100D-08 -.306062926505D+01
     .751763582230D-05  .197559950175D-01  .843591988087D-05  .515366285133D+04
     .568800000000D+06  .379979610443D-06  .368560523774D+00  .130385160446D-07
     .988308805520D+00  .225500000000D+03 -.156593274738D+01 -.754067124208D-08
     .419303179946D-09  .100000000000D+01  .196200000000D+04  .000000000000D+00
     .340000000000D+01  .000000000000D+00 -.111758708954D-07  .830000000000D+02
     .561606000000D+06  .400000000000D+01
29 17  8 19 14  0  0.0  .572908669710D-03 -.420641299570D-11  .000000000000D+00
     .740000000000D+02 -.138125000000D+02  .452018828399D-08 -.262095220897D+01
    -.637024641037D-06  .579552608542D-03  .970438122749D-06  .515358374786D+04
     .568800000000D+06  .119209289551D-06  .139120559218D+01 -.121071934700D-06
     .981519949846D+00  .369156250000D+03  .810425470388D+00 -.844356599413D-08
    -.560737642688D-10  .100000000000D+01  .196200000000D+04  .000000000000D+00
     .240000000000D+01  .000000000000D+00 -.102445483208D-07  .740000000000D+02
     .561606000000D+06  .400000000000D+01
